LITUANICASAT-2          
1 42768U 17036D   17315.88725788  .00003705  00000-0  17263-3 0  9991
2 42768  97.4333  13.7105 0017764 106.2505 254.0686 15.20380153 21539
LEMUR-2-SHAINAJOHL      
1 42771U 17036G   17315.87689877  .00003065  00000-0  14346-3 0  9990
2 42771  97.4329  13.7233 0016903 105.4157 254.8947 15.20370198 21477
LEMUR-2-XUENITERENCE    
1 42772U 17036H   17316.13586401  .00003535  00000-0  16480-3 0  9993
2 42772  97.4330  13.9876 0016568 104.3047 256.0029 15.20412829 21516
LEMUR-2-LUCYBRYCE       
1 42773U 17036J   17315.79775533  .00002922  00000-0  13609-3 0  9990
2 42773  97.4333  13.6766 0016370 105.2351 255.0695 15.20590587 21464
LEMUR-2-KUNGFOO         
1 42774U 17036K   17315.86638145  .00003126  00000-0  14584-3 0  9996
2 42774  97.4333  13.7413 0016326 104.8377 255.4668 15.20479347 21463
AALTO-1                 
1 42775U 17036L   17315.73492730  .00001573  00000-0  75330-4 0  9992
2 42775  97.4326  13.6066 0016008 104.1484 256.1531 15.20312850 21459
URSA MAIOR              
1 42776U 17036M   17315.73100418  .00001578  00000-0  75458-4 0  9998
2 42776  97.4331  13.6169 0015911 104.4807 255.8195 15.20370215 21455
COMPASS 2               
1 42777U 17036N   17315.89390994  .00003235  00000-0  14897-3 0  9997
2 42777  97.4342  13.8757 0014866 107.8510 252.4348 15.20925897 21476
LEMUR-2-LYNSEY-SYMO     
1 42779U 17036Q   17315.87290904  .00003316  00000-0  15140-3 0  9999
2 42779  97.4336  13.8883 0014361 113.7461 246.5282 15.21204097 21465
LEMUR-2-LISASAURUS      
1 42780U 17036R   17315.87481732  .00003448  00000-0  15775-3 0  9992
2 42780  97.4332  13.8804 0014260 113.5092 246.7644 15.21109370 21475
LEMUR-2-SAM-AMELIA      
1 42781U 17036S   17315.86882105  .00003331  00000-0  15194-3 0  9997
2 42781  97.4333  13.8869 0014190 114.1690 246.1031 15.21238141 21463
LEMUR-2-MCPEAKE         
1 42782U 17036T   17315.86602097  .00003392  00000-0  15454-3 0  9994
2 42782  97.4335  13.8943 0014049 113.6880 246.5831 15.21272743 21465
DIAMOND RED             
1 42783U 17036U   17316.13813261  .00002433  00000-0  11268-3 0  9997
2 42783  97.4328  14.1368 0014170 114.1454 246.1265 15.20972224 21514
PEGASUS                 
1 42784U 17036V   17316.13331135  .00002729  00000-0  12569-3 0  9996
2 42784  97.4331  14.1457 0014108 114.4331 245.8379 15.21069343 21518
DIAMOND GREEN           
1 42785U 17036W   17316.13720073  .00002041  00000-0  95066-4 0  9991
2 42785  97.4331  14.1424 0014069 114.6791 245.5912 15.20968241 21504
DIAMOND BLUE            
1 42786U 17036X   17316.13550639  .00002417  00000-0  11208-3 0  9993
2 42786  97.4331  14.1436 0013891 114.9490 245.3191 15.20946534 21507
NUDTSAT                 
1 42787U 17036Y   17315.91873237  .00003756  00000-0  17020-3 0  9996
2 42787  97.4332  13.9739 0013725 115.3842 244.8816 15.21388543 21323
SUCHAI                  
1 42788U 17036Z   17315.85902739  .00002466  00000-0  11332-3 0  9997
2 42788  97.4330  13.8991 0013757 115.4540 244.8121 15.21237977 21549
SKCUBE                  
1 42789U 17036AA  17315.92202342  .00002939  00000-0  13441-3 0  9997
2 42789  97.4329  13.9659 0013576 115.0958 245.1688 15.21247712 21470
VZLUSAT-1               
1 42790U 17036AB  17315.91223039  .00003881  00000-0  17560-3 0  9997
2 42790  97.4328  13.9755 0013258 115.6133 244.6474 15.21427039 21475
ROBUSTA-1B              
1 42792U 17036AD  17315.91019249  .00002964  00000-0  13505-3 0  9991
2 42792  97.4326  13.9766 0013127 116.1365 244.1223 15.21381117 21489
CICERO 6                
1 42793U 17036AE  17315.76506899  .00001666  00000-0  77198-4 0  9994
2 42793  97.4323  13.8622 0012179 117.1105 243.1375 15.21432882 21535
D-SAT                   
1 42794U 17036AF  17315.91004748  .00000922  00000-0  86578-4 0  9994
2 42794  97.6247  13.3925 0125960 285.0865  73.6446 14.90699484 21358
TOKI                    
1 42820U 98067MU  17315.64797067  .00017761  00000-0  22553-3 0  9991
2 42820  51.6389  20.6913 0003515  52.7941 307.3373 15.59489518 19824
GHANASAT-1              
1 42821U 98067MV  17316.16772416  .00016714  00000-0  21384-3 0  9999
2 42821  51.6390  18.1621 0003456  59.3590 300.7743 15.59339961 19882
MAZAALAI (NUMSAT-1)     
1 42822U 98067MW  17315.65498247  .00017705  00000-0  22587-3 0  9997
2 42822  51.6390  20.7389 0003421  58.7551 301.3777 15.59368472 19800
BRAC ONNESHA            
1 42823U 98067MX  17315.59285588  .00017724  00000-0  22598-3 0  9996
2 42823  51.6395  21.0784 0006118  84.5185 275.6505 15.59372979 19792
NIGERIAEDUSAT-1         
1 42824U 98067MY  17315.72652025  .00017585  00000-0  22498-3 0  9990
2 42824  51.6401  20.4731 0005994  85.6159 274.5518 15.59288594 19836
LEMUR-2-GREENBERG       
1 42837U 17042N   17316.19658079  .00001437  00000-0  14995-3 0  9997
2 42837  97.6078 221.6018 0012580 193.8940 166.1935 14.91187445 18018
LEMUR-2-ANDIS           
1 42838U 17042P   17315.79227312  .00000951  00000-0  10102-3 0  9991
2 42838  97.6077 221.2151 0012660 195.2730 164.8108 14.91202039 17950
LEMUR-2-MONSON          
1 42839U 17042Q   17316.18798394  .00000909  00000-0  96735-4 0  9999
2 42839  97.6076 221.6113 0012520 192.8684 167.2217 14.91253377 18015
LEMUR-2-FURIAUS         
1 42840U 17042R   17315.84855838  .00000951  00000-0  10066-3 0  9999
2 42840  97.6075 221.2919 0012465 194.6433 165.4426 14.91339145 17958
LEMUR-2-PETERG          
1 42841U 17042S   17315.70377395  .00001130  00000-0  11828-3 0  9999
2 42841  97.6076 221.1773 0012148 193.4963 166.5933 14.91470103 17944
LEMUR-2-DEMBITZ         
1 42842U 17042T   17315.70199645  .00001107  00000-0  11586-3 0  9995
2 42842  97.6074 221.1774 0012139 194.0745 166.0138 14.91490784 17948
LEMUR-2-ZACHARY         
1 42845U 17042W   17315.68471880  .00001126  00000-0  11720-3 0  9990
2 42845  97.6025 221.1202 0012392 199.2298 160.8455 14.91685699 17938
FLOCK 2K-03             
1 42850U 17042AB  17315.69033540  .00010375  00000-0  31132-3 0  9999
2 42850  96.9936 218.2754 0011149 171.1824 188.9618 15.34566927 18257
FLOCK 2K-04             
1 42851U 17042AC  17315.95476401  .00010093  00000-0  30307-3 0  9996
2 42851  96.9939 218.5211 0010904 171.6739 188.4688 15.34553787 18296
FLOCK 2K-01             
1 42852U 17042AD  17315.69224142  .00010267  00000-0  30791-3 0  9991
2 42852  96.9936 218.2744 0010697 171.3302 188.8129 15.34591299 18254
FLOCK 2K-02             
1 42853U 17042AE  17315.79013435  .00002390  00000-0  76765-4 0  9994
2 42853  96.9948 218.3031 0011813 172.0747 188.0685 15.33138954 18264
FLOCK 2K-47             
1 42854U 17042AF  17315.68864098  .00007038  00000-0  21211-3 0  9991
2 42854  96.9939 218.2768 0010596 169.3576 190.7894 15.34550980 18256
FLOCK 2K-48             
1 42855U 17042AG  17315.68719770  .00008251  00000-0  24809-3 0  9992
2 42855  96.9938 218.2835 0010577 169.7594 190.3867 15.34571813 18258
FLOCK 2K-45             
1 42856U 17042AH  17315.68558184  .00010819  00000-0  32427-3 0  9991
2 42856  96.9936 218.2823 0010734 168.6544 191.4945 15.34597499 18259
FLOCK 2K-24             
1 42857U 17042AJ  17316.20605038  .00012372  00000-0  37103-3 0  9994
2 42857  96.9938 218.7775 0010891 165.1350 195.0216 15.34545020 18337
FLOCK 2K-46             
1 42858U 17042AK  17315.68318468  .00009454  00000-0  28400-3 0  9991
2 42858  96.9942 218.2906 0010909 168.3558 191.7941 15.34558490 18253
FLOCK 2K-23             
1 42859U 17042AL  17315.81212880  .00011002  00000-0  32943-3 0  9997
2 42859  96.9940 218.4139 0010995 168.5202 191.6295 15.34622321 18273
FLOCK 2K-21             
1 42860U 17042AM  17315.81041238  .00010732  00000-0  32187-3 0  9995
2 42860  96.9939 218.4152 0011028 167.8175 192.3338 15.34576225 18274
FLOCK 2K-22             
1 42861U 17042AN  17316.21497667  .00011289  00000-0  34001-3 0  9997
2 42861  96.9942 218.7731 0011033 164.6599 195.4982 15.34429502 18337
FLOCK 2K-07             
1 42862U 17042AP  17315.74351531  .00006659  00000-0  20062-3 0  9991
2 42862  96.9942 218.3567 0011263 168.5401 191.6101 15.34574819 18277
FLOCK 2K-08             
1 42863U 17042AQ  17316.19720801  .00010922  00000-0  32773-3 0  9992
2 42863  96.9939 218.7881 0011302 167.6964 192.4558 15.34552923 18339
FLOCK 2K-05             
1 42864U 17042AR  17315.67726988  .00010588  00000-0  31763-3 0  9993
2 42864  96.9941 218.2954 0011291 168.3000 191.8509 15.34567652 18250
FLOCK 2K-40             
1 42865U 17042AS  17316.19583970  .00009703  00000-0  29134-3 0  9990
2 42865  96.9942 218.7947 0011223 167.7160 192.4360 15.34565383 18334
FLOCK 2K-39             
1 42866U 17042AT  17315.67288403  .00008017  00000-0  24080-3 0  9998
2 42866  96.9938 218.2990 0011273 168.7839 191.3659 15.34609726 18252
FLOCK 2K-37             
1 42867U 17042AU  17315.80171633  .00002876  00000-0  88024-4 0  9996
2 42867  96.9941 218.4262 0011229 169.2664 190.8822 15.34535083 18276
FLOCK 2K-38             
1 42868U 17042AV  17315.79874609  .00010690  00000-0  32054-3 0  9992
2 42868  96.9939 218.4298 0011205 168.4574 191.6930 15.34582601 18275
FLOCK 2K-31             
1 42869U 17042AW  17315.79692576  .00004407  00000-0  13344-3 0  9994
2 42869  96.9938 218.4305 0011311 167.0222 193.1315 15.34594633 18279
FLOCK 2K-32             
1 42870U 17042AX  17315.73061514  .00010078  00000-0  30198-3 0  9999
2 42870  96.9935 218.3706 0011366 167.8832 192.2688 15.34616748 18261
FLOCK 2K-29             
1 42871U 17042AY  17316.18550751  .00005625  00000-0  16964-3 0  9993
2 42871  96.9940 218.8078 0011553 165.7034 194.4539 15.34606920 18332
FLOCK 2K-30             
1 42872U 17042AZ  17315.72772898  .00004229  00000-0  12799-3 0  9992
2 42872  96.9940 218.3742 0011432 168.4434 191.7075 15.34634444 18254
FLOCK 2K-44             
1 42873U 17042BA  17315.72604752  .00005694  00000-0  17168-3 0  9998
2 42873  96.9944 218.3789 0012812 158.4329 201.7457 15.34596024 18263
